HULIANWANG DIGUI 13E    
1 66416U 25258E   25333.30245431 -.00000075  00000+0  36811-4 0  9998
2 66416  50.0050 318.5540 0012721 316.9079  43.0838 14.23465536  2747
HULIANWANG DIGUI 13F    
1 66417U 25258F   25333.30112205 -.00000053  00000+0  46627-4 0  9993
2 66417  50.0002 318.5267 0012406 315.3307  44.6606 14.23473299  2743
HULIANWANG DIGUI 13G    
1 66418U 25258G   25333.29696248  .00000019  00000+0  77828-4 0  9994
2 66418  50.0011 318.5050 0012432 311.1966  48.7875 14.23484237  2745
HULIANWANG DIGUI 13H    
1 66419U 25258H   25333.29553252  .00000041  00000+0  87654-4 0  9995
2 66419  50.0003 318.4947 0012073 312.3743  47.6147 14.23501453  2748
HULIANWANG DIGUI 13J    
1 66420U 25258J   25333.29428025  .00000061  00000+0  96093-4 0  9995
2 66420  50.0026 318.4969 0011346 319.2981  40.7083 14.23469049  2737
CZ-12 R/B               
1 66421U 25258K   25333.27879624 -.00000088  00000+0  24340-4 0  9995
2 66421  49.9957 316.3592 0064604 201.0382 158.7879 14.42314254  2770
STARLINK-35617          
1 66422U 25259A   25333.83335647 -.01941723  00000+0 -25959-1 0  9997
2 66422  42.9992 122.9292 0001480 286.1449 160.0346 15.60550237  4201
STARLINK-35618          
1 66423U 25259B   25333.83335647 -.01943208  00000+0 -25979-1 0  9990
2 66423  42.9992 122.9245 0001571 285.6047 162.4901 15.60551763  4207
STARLINK-35588          
1 66424U 25259C   25333.83335647 -.01941241  00000+0 -25949-1 0  9993
2 66424  42.9993 122.9204 0001521 285.5955 164.4147 15.60551771  4209
STARLINK-35555          
1 66425U 25259D   25333.83335647 -.01936213  00000+0 -25878-1 0  9998
2 66425  42.9994 122.9139 0001545 283.1648 168.7681 15.60546285  4201
STARLINK-35589          
1 66426U 25259E   25333.83335647 -.01930955  00000+0 -25800-1 0  9991
2 66426  42.9993 122.9105 0001463 284.1062 169.7385 15.60545787  4202
STARLINK-35611          
1 66427U 25259F   25333.83335647 -.01935706  00000+0 -25870-1 0  9998
2 66427  42.9995 122.9047 0001597 281.5529 174.2114 15.60546806  4201
