CCSDS_OMM_VERS = 2.0
CREATION_DATE  = 
ORIGINATOR     = 

OBJECT_NAME    = HULIANWANG DIGUI 13E
OBJECT_ID      = 2025-258E
CENTER_NAME    = EARTH
REF_FRAME      = TEME
TIME_SYSTEM    = UTC
MEAN_ELEMENT_THEORY = SGP/SGP4

EPOCH          = 2025-11-29T07:15:32.052384
MEAN_MOTION    = 14.23465536
ECCENTRICITY   = .00127216
INCLINATION    = 50.0050
RA_OF_ASC_NODE = 318.5540
ARG_OF_PERICENTER = 316.9079
MEAN_ANOMALY   = 43.0838

EPHEMERIS_TYPE = 0
CLASSIFICATION_TYPE = U
NORAD_CAT_ID   = 66416
ELEMENT_SET_NO = 999
REV_AT_EPOCH   = 274
BSTAR          = .36811335E-4
MEAN_MOTION_DOT = -.75E-6
MEAN_MOTION_DDOT = 0

CCSDS_OMM_VERS = 2.0
CREATION_DATE  = 
ORIGINATOR     = 

OBJECT_NAME    = HULIANWANG DIGUI 13F
OBJECT_ID      = 2025-258F
CENTER_NAME    = EARTH
REF_FRAME      = TEME
TIME_SYSTEM    = UTC
MEAN_ELEMENT_THEORY = SGP/SGP4

EPOCH          = 2025-11-29T07:13:36.945120
MEAN_MOTION    = 14.23473299
ECCENTRICITY   = .00124063
INCLINATION    = 50.0002
RA_OF_ASC_NODE = 318.5267
ARG_OF_PERICENTER = 315.3307
MEAN_ANOMALY   = 44.6606

EPHEMERIS_TYPE = 0
CLASSIFICATION_TYPE = U
NORAD_CAT_ID   = 66417
ELEMENT_SET_NO = 999
REV_AT_EPOCH   = 274
BSTAR          = .46626868E-4
MEAN_MOTION_DOT = -.53E-6
MEAN_MOTION_DDOT = 0

CCSDS_OMM_VERS = 2.0
CREATION_DATE  = 
ORIGINATOR     = 

OBJECT_NAME    = HULIANWANG DIGUI 13G
OBJECT_ID      = 2025-258G
CENTER_NAME    = EARTH
REF_FRAME      = TEME
TIME_SYSTEM    = UTC
MEAN_ELEMENT_THEORY = SGP/SGP4

EPOCH          = 2025-11-29T07:07:37.558272
MEAN_MOTION    = 14.23484237
ECCENTRICITY   = .00124323
INCLINATION    = 50.0011
RA_OF_ASC_NODE = 318.5050
ARG_OF_PERICENTER = 311.1966
MEAN_ANOMALY   = 48.7875

EPHEMERIS_TYPE = 0
CLASSIFICATION_TYPE = U
NORAD_CAT_ID   = 66418
ELEMENT_SET_NO = 999
REV_AT_EPOCH   = 274
BSTAR          = .77828489E-4
MEAN_MOTION_DOT = .19E-6
MEAN_MOTION_DDOT = 0

CCSDS_OMM_VERS = 2.0
CREATION_DATE  = 
ORIGINATOR     = 

OBJECT_NAME    = HULIANWANG DIGUI 13H
OBJECT_ID      = 2025-258H
CENTER_NAME    = EARTH
REF_FRAME      = TEME
TIME_SYSTEM    = UTC
MEAN_ELEMENT_THEORY = SGP/SGP4

EPOCH          = 2025-11-29T07:05:34.009728
MEAN_MOTION    = 14.23501453
ECCENTRICITY   = .00120731
INCLINATION    = 50.0003
RA_OF_ASC_NODE = 318.4947
ARG_OF_PERICENTER = 312.3743
MEAN_ANOMALY   = 47.6147

EPHEMERIS_TYPE = 0
CLASSIFICATION_TYPE = U
NORAD_CAT_ID   = 66419
ELEMENT_SET_NO = 999
REV_AT_EPOCH   = 274
BSTAR          = .8765448E-4
MEAN_MOTION_DOT = .41E-6
MEAN_MOTION_DDOT = 0

CCSDS_OMM_VERS = 2.0
CREATION_DATE  = 
ORIGINATOR     = 

OBJECT_NAME    = HULIANWANG DIGUI 13J
OBJECT_ID      = 2025-258J
CENTER_NAME    = EARTH
REF_FRAME      = TEME
TIME_SYSTEM    = UTC
MEAN_ELEMENT_THEORY = SGP/SGP4

EPOCH          = 2025-11-29T07:03:45.813600
MEAN_MOTION    = 14.23469049
ECCENTRICITY   = .0011346
INCLINATION    = 50.0026
RA_OF_ASC_NODE = 318.4969
ARG_OF_PERICENTER = 319.2981
MEAN_ANOMALY   = 40.7083

EPHEMERIS_TYPE = 0
CLASSIFICATION_TYPE = U
NORAD_CAT_ID   = 66420
ELEMENT_SET_NO = 999
REV_AT_EPOCH   = 273
BSTAR          = .96092789E-4
MEAN_MOTION_DOT = .61E-6
MEAN_MOTION_DDOT = 0

CCSDS_OMM_VERS = 2.0
CREATION_DATE  = 
ORIGINATOR     = 

OBJECT_NAME    = CZ-12 R/B
OBJECT_ID      = 2025-258K
CENTER_NAME    = EARTH
REF_FRAME      = TEME
TIME_SYSTEM    = UTC
MEAN_ELEMENT_THEORY = SGP/SGP4

EPOCH          = 2025-11-29T06:41:27.995136
MEAN_MOTION    = 14.42314254
ECCENTRICITY   = .00646049
INCLINATION    = 49.9957
RA_OF_ASC_NODE = 316.3592
ARG_OF_PERICENTER = 201.0382
MEAN_ANOMALY   = 158.7879

EPHEMERIS_TYPE = 0
CLASSIFICATION_TYPE = U
NORAD_CAT_ID   = 66421
ELEMENT_SET_NO = 999
REV_AT_EPOCH   = 277
BSTAR          = .24339908E-4
MEAN_MOTION_DOT = -.88E-6
MEAN_MOTION_DDOT = 0

CCSDS_OMM_VERS = 2.0
CREATION_DATE  = 
ORIGINATOR     = 

OBJECT_NAME    = STARLINK-35617
OBJECT_ID      = 2025-259A
CENTER_NAME    = EARTH
REF_FRAME      = TEME
TIME_SYSTEM    = UTC
MEAN_ELEMENT_THEORY = SGP/SGP4

EPOCH          = 2025-11-29T20:00:01.999008
MEAN_MOTION    = 15.60550237
ECCENTRICITY   = .000148
INCLINATION    = 42.9992
RA_OF_ASC_NODE = 122.9292
ARG_OF_PERICENTER = 286.1449
MEAN_ANOMALY   = 160.0346

EPHEMERIS_TYPE = 0
CLASSIFICATION_TYPE = U
NORAD_CAT_ID   = 66422
ELEMENT_SET_NO = 999
REV_AT_EPOCH   = 420
BSTAR          = -.25959E-1
MEAN_MOTION_DOT = -.1941723E-1
MEAN_MOTION_DDOT = 0

CCSDS_OMM_VERS = 2.0
CREATION_DATE  = 
ORIGINATOR     = 

OBJECT_NAME    = STARLINK-35618
OBJECT_ID      = 2025-259B
CENTER_NAME    = EARTH
REF_FRAME      = TEME
TIME_SYSTEM    = UTC
MEAN_ELEMENT_THEORY = SGP/SGP4

EPOCH          = 2025-11-29T20:00:01.999008
MEAN_MOTION    = 15.60551763
ECCENTRICITY   = .0001571
INCLINATION    = 42.9992
RA_OF_ASC_NODE = 122.9245
ARG_OF_PERICENTER = 285.6047
MEAN_ANOMALY   = 162.4901

EPHEMERIS_TYPE = 0
CLASSIFICATION_TYPE = U
NORAD_CAT_ID   = 66423
ELEMENT_SET_NO = 999
REV_AT_EPOCH   = 420
BSTAR          = -.25979E-1
MEAN_MOTION_DOT = -.1943208E-1
MEAN_MOTION_DDOT = 0

CCSDS_OMM_VERS = 2.0
CREATION_DATE  = 
ORIGINATOR     = 

OBJECT_NAME    = STARLINK-35588
OBJECT_ID      = 2025-259C
CENTER_NAME    = EARTH
REF_FRAME      = TEME
TIME_SYSTEM    = UTC
MEAN_ELEMENT_THEORY = SGP/SGP4

EPOCH          = 2025-11-29T20:00:01.999008
MEAN_MOTION    = 15.60551771
ECCENTRICITY   = .0001521
INCLINATION    = 42.9993
RA_OF_ASC_NODE = 122.9204
ARG_OF_PERICENTER = 285.5955
MEAN_ANOMALY   = 164.4147

EPHEMERIS_TYPE = 0
CLASSIFICATION_TYPE = U
NORAD_CAT_ID   = 66424
ELEMENT_SET_NO = 999
REV_AT_EPOCH   = 420
BSTAR          = -.25949E-1
MEAN_MOTION_DOT = -.1941241E-1
MEAN_MOTION_DDOT = 0

CCSDS_OMM_VERS = 2.0
CREATION_DATE  = 
ORIGINATOR     = 

OBJECT_NAME    = STARLINK-35555
OBJECT_ID      = 2025-259D
CENTER_NAME    = EARTH
REF_FRAME      = TEME
TIME_SYSTEM    = UTC
MEAN_ELEMENT_THEORY = SGP/SGP4

EPOCH          = 2025-11-29T20:00:01.999008
MEAN_MOTION    = 15.60546285
ECCENTRICITY   = .0001545
INCLINATION    = 42.9994
RA_OF_ASC_NODE = 122.9139
ARG_OF_PERICENTER = 283.1648
MEAN_ANOMALY   = 168.7681

EPHEMERIS_TYPE = 0
CLASSIFICATION_TYPE = U
NORAD_CAT_ID   = 66425
ELEMENT_SET_NO = 999
REV_AT_EPOCH   = 420
BSTAR          = -.25878E-1
MEAN_MOTION_DOT = -.1936213E-1
MEAN_MOTION_DDOT = 0

CCSDS_OMM_VERS = 2.0
CREATION_DATE  = 
ORIGINATOR     = 

OBJECT_NAME    = STARLINK-35589
OBJECT_ID      = 2025-259E
CENTER_NAME    = EARTH
REF_FRAME      = TEME
TIME_SYSTEM    = UTC
MEAN_ELEMENT_THEORY = SGP/SGP4

EPOCH          = 2025-11-29T20:00:01.999008
MEAN_MOTION    = 15.60545787
ECCENTRICITY   = .0001463
INCLINATION    = 42.9993
RA_OF_ASC_NODE = 122.9105
ARG_OF_PERICENTER = 284.1062
MEAN_ANOMALY   = 169.7385

EPHEMERIS_TYPE = 0
CLASSIFICATION_TYPE = U
NORAD_CAT_ID   = 66426
ELEMENT_SET_NO = 999
REV_AT_EPOCH   = 420
BSTAR          = -.258E-1
MEAN_MOTION_DOT = -.1930955E-1
MEAN_MOTION_DDOT = 0

CCSDS_OMM_VERS = 2.0
CREATION_DATE  = 
ORIGINATOR     = 

OBJECT_NAME    = STARLINK-35611
OBJECT_ID      = 2025-259F
CENTER_NAME    = EARTH
REF_FRAME      = TEME
TIME_SYSTEM    = UTC
MEAN_ELEMENT_THEORY = SGP/SGP4

EPOCH          = 2025-11-29T20:00:01.999008
MEAN_MOTION    = 15.60546806
ECCENTRICITY   = .0001597
INCLINATION    = 42.9995
RA_OF_ASC_NODE = 122.9047
ARG_OF_PERICENTER = 281.5529
MEAN_ANOMALY   = 174.2114

EPHEMERIS_TYPE = 0
CLASSIFICATION_TYPE = U
NORAD_CAT_ID   = 66427
ELEMENT_SET_NO = 999
REV_AT_EPOCH   = 420
BSTAR          = -.2587E-1
MEAN_MOTION_DOT = -.1935706E-1
MEAN_MOTION_DDOT = 0

